HYLAS 2                 
1 38741U 12043B   26162.53753065 -.00000242  00000+0  00000+0 0  9991
2 38741   2.4120  81.1354 0002488  23.3170 276.3808  1.00272268 50719
INTELSAT 21 (IS-21)     
1 38749U 12045A   26162.54039066 -.00000268  00000+0  00000+0 0  9998
2 38749   0.0188 289.0635 0001321 163.5253 303.8368  1.00272424 50463
ASTRA 2F                
1 38778U 12051A   26162.55744608  .00000167  00000+0  00000+0 0  9990
2 38778   0.0769 260.1839 0001699 278.7501 309.8662  1.00273888 41085
GSAT-10                 
1 38779U 12051B   26162.49709873  .00000000  00000+0  00000+0 0  9995
2 38779   0.0170 344.7003 0007747 106.3247  70.7939  1.00269530 50043
INTELSAT 23 (IS-23)     
1 38867U 12057A   26162.37406100 -.00000268  00000+0  00000+0 0  9990
2 38867   0.0140 307.2279 0000038 196.2343 197.9213  1.00268413 49895
BEIDOU-2 G6             
1 38953U 12059A   26162.66415097 -.00000162  00000+0  00000+0 0  9998
2 38953   4.4060  73.5834 0009840 324.7911 184.7466  1.00273386 49854
LUCH-5B                 
1 38977U 12061A   26161.97829617 -.00000127  00000+0  00000+0 0  9998
2 38977  10.4672  49.9410 0001940 141.4195  43.8723  1.00273172 49544
YAMAL 300K              
1 38978U 12061B   26162.51681722  .00000089  00000+0  00000+0 0  9999
2 38978   0.0164 297.2434 0001207 275.6802  55.9584  1.00276452 49577
STAR ONE C3             
1 38991U 12062A   26162.53701065 -.00000232  00000+0  00000+0 0  9991
2 38991   0.0170  47.8484 0002204  44.4828 285.8834  1.00272647 49700
EUTELSAT 21B            
1 38992U 12062B   26162.55605941  .00000146  00000+0  00000+0 0  9993
2 38992   0.0654   0.0792 0003061  77.9703  43.6033  1.00272485 49774
ECHOSTAR 16             
1 39008U 12065A   26161.32778103 -.00000264  00000+0  00000+0 0  9992
2 39008   0.0181 346.4320 0001836  99.7789 228.9880  1.00270409 49576
ZHONGXING-12            
1 39017U 12067A   26162.64046620 -.00000190  00000+0  00000+0 0  9990
2 39017   0.0129 357.6188 0003027  82.4639 137.9550  1.00269556 49452
EUTELSAT 70B            
1 39020U 12069A   26162.49018247 -.00000027  00000+0  00000+0 0  9992
2 39020   0.0617   3.2988 0003999  69.5048  73.9842  1.00271950 49452
YAMAL 402               
1 39022U 12070A   26162.63409112  .00000102  00000+0  00000+0 0  9990
2 39022   1.2501  84.2235 0003648 352.9499 105.9808  1.00272543 49348
SKYNET 5D               
1 39034U 12075A   26162.56238610  .00000116  00000+0  00000+0 0  9998
2 39034   0.0705 337.4175 0003712 116.2377  61.5144  1.00273421 49108
MEXSAT 3                
1 39035U 12075B   26162.60046060  .00000000  00000+0  00000+0 0  9992
2 39035   0.0215   3.0292 0000779  40.5198 317.7636  1.00274888  6991
TDRS 11                 
1 39070U 13004A   26162.61573446  .00000093  00000+0  00000+0 0  9990
2 39070   3.5129  31.1738 0005611  17.8722 258.2206  1.00267520 46631
AMAZONAS 3              
1 39078U 13006A   26162.53978399 -.00000265  00000+0  00000+0 0  9999
2 39078   0.0403 238.6212 0002181 237.8828 276.6671  1.00267172 44852
AZERSPACE 1             
1 39079U 13006B   26162.56099942  .00000150  00000+0  00000+0 0  9993
2 39079   0.0186 337.0958 0001369 139.2005  31.5704  1.00273105 48752
SBIRS GEO-2 (USA 241)   
1 39120U 13011A   26162.54203734 -.00000272  00000+0  00000+0 0  9996
2 39120   4.4781  52.5085 0002183  19.4104 333.2919  1.00271300 48476
EUTELSAT 117 WEST A     
1 39122U 13012A   26162.60002726  .00000004  00000+0  00000+0 0  9996
2 39122   0.0140 330.8627 0002573 113.9778 274.3142  1.00271730 48372
ANIK G1                 
1 39127U 13014A   26162.60193394  .00000000  00000+0  00000+0 0  9991
2 39127   0.0260 340.4923 0001460  94.3016 294.5324  1.00269867 48191
ZHONGXING-11            
1 39157U 13020A   26162.67468123 -.00000274  00000+0  00000+0 0  9997
2 39157   0.0420  57.0111 0002269  18.2462 165.5711  1.00271903 47842
EUTELSAT 7B             
1 39163U 13022A   26162.33938207  .00000065  00000+0  00000+0 0  9991
2 39163   0.0716  16.8779 0004785  18.8992 353.0813  1.00271668 47888
WGS F5 (USA 243)        
1 39168U 13024A   26161.82853679 -.00000267  00000+0  00000+0 0  9995
2 39168   0.0188 320.4542 0000115   0.3035 184.1975  1.00270409 47115
SES-6                   
1 39172U 13026A   26162.36850333 -.00000244  00000+0  00000+0 0  9991
2 39172   0.0178 336.8112 0002534 118.6594 256.4105  1.00271417 47661
IRNSS-1A                
1 39199U 13034A   26142.85947303  .00000059  00000+0  00000+0 0  9998
2 39199  35.6649  64.2334 0016618 185.3754 355.4646  1.00280263 47111
MUOS-2                  
1 39206U 13036A   26162.51465054  .00000000  00000+0  00000+0 0  9998
2 39206   4.9845  45.5267 0050740 177.7638  33.7787  1.00272226 47138
ALPHASAT                
1 39215U 13038A   26162.55675274  .00000148  00000+0  00000+0 0  9994
2 39215   2.9982   1.3519 0001687  83.2746  40.5474  1.00268608 43960
INSAT-3D                
1 39216U 13038B   26162.57749742 -.00000323  00000+0  00000+0 0  9995
2 39216   1.9108  82.6096 0000647 312.4653 202.2697  1.00271990 47024
WGS F6 (USA 244)        
1 39222U 13041A   26162.01572497  .00000106  00000+0  00000+0 0  9994
2 39222   0.0187   3.8621 0000273 270.8147 215.1788  1.00270446 46003
ES'HAIL 1               
1 39233U 13044A   26162.55692608  .00000160  00000+0  00000+0 0  9995
2 39233   0.0506  11.9267 0002155  65.2976  48.6400  1.00271975 46573
