OBJECT_NAME,OBJECT_ID,EPOCH,MEAN_MOTION,ECCENTRICITY,INCLINATION,RA_OF_ASC_NODE,ARG_OF_PERICENTER,MEAN_ANOMALY,EPHEMERIS_TYPE,CLASSIFICATION_TYPE,NORAD_CAT_ID,ELEMENT_SET_NO,REV_AT_EPOCH,BSTAR,MEAN_MOTION_DOT,MEAN_MOTION_DDOT
HYLAS 2,2012-043B,2026-06-11T12:54:02.648160,1.00272268,.00024886,2.4120,81.1354,23.3170,276.3808,0,U,38741,999,5071,0,-.242E-5,0
INTELSAT 21 (IS-21),2012-045A,2026-06-11T12:58:09.753024,1.00272424,.00013214,0.0188,289.0635,163.5253,303.8368,0,U,38749,999,5046,0,-.268E-5,0
ASTRA 2F,2012-051A,2026-06-11T13:22:43.341312,1.00273888,.00016995,0.0769,260.1839,278.7501,309.8662,0,U,38778,999,4108,0,.167E-5,0
GSAT-10,2012-051B,2026-06-11T11:55:49.330272,1.00269530,.00077471,0.0170,344.7003,106.3247,70.7939,0,U,38779,999,5004,0,0,0
INTELSAT 23 (IS-23),2012-057A,2026-06-11T08:58:38.870400,1.00268413,.0000038,0.0140,307.2279,196.2343,197.9213,0,U,38867,999,4989,0,-.268E-5,0
BEIDOU-2 G6,2012-059A,2026-06-11T15:56:22.643808,1.00273386,.00098409,4.4060,73.5834,324.7911,184.7466,0,U,38953,999,4985,0,-.162E-5,0
LUCH-5B,2012-061A,2026-06-10T23:28:44.789088,1.00273172,.00019402,10.4672,49.9410,141.4195,43.8723,0,U,38977,999,4954,0,-.127E-5,0
YAMAL 300K,2012-061B,2026-06-11T12:24:13.007808,1.00276452,.00012076,0.0164,297.2434,275.6802,55.9584,0,U,38978,999,4957,0,.89E-6,0
STAR ONE C3,2012-062A,2026-06-11T12:53:17.720160,1.00272647,.00022045,0.0170,47.8484,44.4828,285.8834,0,U,38991,999,4970,0,-.232E-5,0
EUTELSAT 21B,2012-062B,2026-06-11T13:20:43.533024,1.00272485,.00030612,0.0654,0.0792,77.9703,43.6033,0,U,38992,999,4977,0,.146E-5,0
ECHOSTAR 16,2012-065A,2026-06-10T07:52:00.280992,1.00270409,.00018363,0.0181,346.4320,99.7789,228.9880,0,U,39008,999,4957,0,-.264E-5,0
ZHONGXING-12,2012-067A,2026-06-11T15:22:16.279680,1.00269556,.00030273,0.0129,357.6188,82.4639,137.9550,0,U,39017,999,4945,0,-.19E-5,0
EUTELSAT 70B,2012-069A,2026-06-11T11:45:51.765408,1.00271950,.00039992,0.0617,3.2988,69.5048,73.9842,0,U,39020,999,4945,0,-.27E-6,0
YAMAL 402,2012-070A,2026-06-11T15:13:05.472768,1.00272543,.00036485,1.2501,84.2235,352.9499,105.9808,0,U,39022,999,4934,0,.102E-5,0
SKYNET 5D,2012-075A,2026-06-11T13:29:50.159040,1.00273421,.00037121,0.0705,337.4175,116.2377,61.5144,0,U,39034,999,4910,0,.116E-5,0
MEXSAT 3,2012-075B,2026-06-11T14:24:39.795840,1.00274888,.00007799,0.0215,3.0292,40.5198,317.7636,0,U,39035,999,699,0,0,0
TDRS 11,2013-004A,2026-06-11T14:46:39.457344,1.00267520,.0005611,3.5129,31.1738,17.8722,258.2206,0,U,39070,999,4663,0,.93E-6,0
AMAZONAS 3,2013-006A,2026-06-11T12:57:17.336736,1.00267172,.00021817,0.0403,238.6212,237.8828,276.6671,0,U,39078,999,4485,0,-.265E-5,0
AZERSPACE 1,2013-006B,2026-06-11T13:27:50.349888,1.00273105,.0001369,0.0186,337.0958,139.2005,31.5704,0,U,39079,999,4875,0,.15E-5,0
SBIRS GEO-2 (USA 241),2013-011A,2026-06-11T13:00:32.026176,1.00271300,.00021833,4.4781,52.5085,19.4104,333.2919,0,U,39120,999,4847,0,-.272E-5,0
EUTELSAT 117 WEST A,2013-012A,2026-06-11T14:24:02.355264,1.00271730,.00025731,0.0140,330.8627,113.9778,274.3142,0,U,39122,999,4837,0,.4E-7,0
ANIK G1,2013-014A,2026-06-11T14:26:47.092416,1.00269867,.00014603,0.0260,340.4923,94.3016,294.5324,0,U,39127,999,4819,0,0,0
ZHONGXING-11,2013-020A,2026-06-11T16:11:32.458272,1.00271903,.00022692,0.0420,57.0111,18.2462,165.5711,0,U,39157,999,4784,0,-.274E-5,0
EUTELSAT 7B,2013-022A,2026-06-11T08:08:42.610848,1.00271668,.00047851,0.0716,16.8779,18.8992,353.0813,0,U,39163,999,4788,0,.65E-6,0
WGS F5 (USA 243),2013-024A,2026-06-10T19:53:05.578656,1.00270409,.00001155,0.0188,320.4542,0.3035,184.1975,0,U,39168,999,4711,0,-.267E-5,0
SES-6,2013-026A,2026-06-11T08:50:38.687712,1.00271417,.0002534,0.0178,336.8112,118.6594,256.4105,0,U,39172,999,4766,0,-.244E-5,0
IRNSS-1A,2013-034A,2026-05-22T20:37:38.469792,1.00280263,.00166187,35.6649,64.2334,185.3754,355.4646,0,U,39199,999,4711,0,.59E-6,0
MUOS-2,2013-036A,2026-06-11T12:21:05.806656,1.00272226,.00507404,4.9845,45.5267,177.7638,33.7787,0,U,39206,999,4713,0,0,0
ALPHASAT,2013-038A,2026-06-11T13:21:43.436736,1.00268608,.00016879,2.9982,1.3519,83.2746,40.5474,0,U,39215,999,4396,0,.148E-5,0
INSAT-3D,2013-038B,2026-06-11T13:51:35.777088,1.00271990,.00006478,1.9108,82.6096,312.4653,202.2697,0,U,39216,999,4702,0,-.323E-5,0
WGS F6 (USA 244),2013-041A,2026-06-11T00:22:38.637408,1.00270446,.00002738,0.0187,3.8621,270.8147,215.1788,0,U,39222,999,4600,0,.106E-5,0
ES'HAIL 1,2013-044A,2026-06-11T13:21:58.413312,1.00271975,.00021554,0.0506,11.9267,65.2976,48.6400,0,U,39233,999,4657,0,.16E-5,0
